#dP2024  3 19  0  0  0.00000000      96 __u+U IGS20 EXT  IAC
## 2306 172800.00000000   900.00000000 60388 0.0000000000000
+  120   C06C07C08C09C10C11C12C13C14C16C19C20C21C22C23C24C25
+        C26C27C28C29C30C32C33C34C35C36C37C38C39C40C41C42C43
+        C44C45C46E02E03E04E05E07E08E09E10E11E12E13E14E15E18
+        E19E21E24E25E26E27E30E31E33E34E36G01G02G03G04G05G06
+        G07G08G09G10G11G12G13G14G15G16G17G18G19G20G21G22G23
+        G24G25G26G27G28G29G30G31G32J02J03J04R01R02R03R04R05
+        R07R08R09R11R12R13R14R15R16R17R18R19R20R21R22R24R25
+        R26  0  0  0  0  0  0  0  0  0  0  0  0  0  0  0  0
++        11  8 10 13  8  9  9 10 10 10  9  9  7  9  8  9  7
++         7  8  9  9  8  9  9  9  9  7  8  9 11 10  9  8  8
++        10  9  7  8  8  7  7  7  7  7  7  8  7  7  7  7  7
++         7  8  7  7  8  7  7  7  8  7  8  7  7  7  7  7  7
++         7  7  8  7  8  7  7  8  7  8  7  7  7  7  8  8  7
++         8  7  7  7 10  7  7  7  8 10  8  0  7  7  8  7  9
++         7  7  8  8  8  8  7  7  8  8 10 10  9 10  8  8  8
++         9  0  0  0  0  0  0  0  0  0  0  0  0  0  0  0  0
%c M  cc GPS ccc cccc cccc cccc cccc ccccc ccccc ccccc ccccc
%c cc cc ccc ccc cccc cccc cccc cccc ccccc ccccc ccccc ccccc
%f  0.0000000  0.000000000  0.00000000000  0.000000000000000
%f  0.0000000  0.000000000  0.00000000000  0.000000000000000
%i    0    0    0    0      0      0      0      0         0
%i    0    0    0    0      0      0      0      0         0
/* IAC                                ULTRA-RAPID PREDICTION
/* S/V CLOCKS ARE ALIGNED TO GNSS TIME                      
/* G:C1WC2W R:C1PC2P E:C1XC5X C:C2IC6I J:C1CC2S             
/* PCV:IGS20_2290 OL/AL:FES2004  NONE     YN ORB:CoN CLK:CoN
*  2024 03 19 22  0  0.00000000
PC06  -4624.829858  24564.298536  34041.557288    284.861208
PC07 -17910.751160  35697.537505 -13756.486026   -899.817951
PC08  -3284.820130  37973.846931 -17799.344772     47.690287
PC09   3024.267469  27116.514765  32752.550046   -644.011286
PC10 -11103.760966  35863.683683 -19391.234151     37.971975
PC11  -4095.602876 -15557.411389  22868.501054    468.400966
PC12  17059.873992 -11503.806376  18889.624050   -216.340333
PC13   2231.042683  40697.973120 -10051.377898    425.967588
PC14   3057.608968 -23496.171730 -14673.940180    444.615329
PC16  -9247.386257  22366.088436  34807.795849   -406.271066
PC19   4878.829954  18254.342090  20576.054362   -918.351082
PC20  -9398.982504  25021.139067   8105.198577   -273.717180
PC21  19341.450362 -17120.679233  10541.402659   -961.407428
PC22  17205.438520    618.639664  21958.016294    -68.910445
PC23 -19359.355654 -12831.644667  15471.263105   -776.095633
PC24   1589.680609 -22516.671614 -16441.314622    952.645755
PC25 -13352.963387 -24514.153756   -333.657773    353.643022
PC26  14385.148098  -7699.320419 -22658.402707   -265.157730
PC27 -23888.508147   7468.016839 -12348.666850    287.029461
PC28 -27510.230240  -3520.940827   3079.220338    218.990197
PC29  14510.658138  13810.796267 -19437.506521    256.806182
PC30  -7556.262037  15402.915613 -22014.294367    -40.971014
PC32 -19215.139301  17268.947194 -10556.613468   -585.968386
PC33  -4950.243204 -18263.981152 -20493.623970   -959.838366
PC34   5817.037777 -15690.074032  22321.153921    393.743710
PC35  27614.683359   2625.527043  -3261.194534    407.219026
PC36  12569.418355  24901.325172    664.919097     23.851008
PC37 -14774.249843   6937.795555  22640.292889   -946.593520
PC38  -8234.509132  33932.096156 -23491.694408    143.754846
PC39 -15087.137697  19902.067349  34008.616131     -7.640377
PC40 -25420.452516  31167.504557 -13124.052679    -61.546232
PC41 -16874.045244  -1380.056448 -22128.354779   -908.540591
PC42  10540.181247 -24981.963609  -6475.720874   -446.258901
PC43 -13522.899599 -14221.493633  19818.178071     64.761167
PC44  23738.814206  -8331.655251  12095.650682    418.271989
PC45  19251.310777  12811.406467 -15611.477963    -76.422212
PC46   -896.083584  22885.140969  15907.968615   -133.006550
PE02  -1949.929073  29464.814286  -1925.083287    112.552750
PE03  -4954.305105  19104.890095  22065.693211   -101.449426
PE04 -16196.636781 -10084.534583 -22619.327047   -353.585625
PE05 -22812.352385  16784.646593   8619.762242   4730.615621
PE07  27397.678134  -4322.221909  10332.255325   -109.850650
PE08  15439.143343  10476.628296  22981.287567   -241.545861
PE09 -27359.506466   4326.016660 -10450.684878   -376.479181
PE10 -25400.147377 -14288.011280  -5174.943766   -610.591780
PE11 -24860.990927  -6321.342887 -14758.623535   3152.293775
PE12 -22023.692859 -19325.433221   4101.078707   -956.016854
PE13  25027.124900   6895.047132  14241.798160    -20.614894
PE14 -28434.528918   3235.212645   9105.829060     71.139035
PE15  21778.412257  19511.732076  -4648.672579    -92.185553
PE18  20681.863386   6242.613142 -15700.032868    454.362991
PE19   7410.164335 -19270.127584 -21199.303621   -401.793196
PE21  12993.945803 -21755.704298 -15308.281033   -584.818811
PE24 -16968.810409    492.895372  24225.039013   -660.372290
PE25 -13161.527195  21432.199504  15600.234495      2.312484
PE26  13164.361388 -10145.695293  24499.853285    401.243279
PE27  16955.377287   -995.977039 -24248.622662   -302.922954
PE30  10769.238430  20300.791910 -18666.295590   -111.796674
PE31 -10873.688136 -20123.298371  18789.102184    -18.680472
PE33  -5260.329816 -20350.206084  20843.778789      9.238026
PE34   5841.734299  20500.976421 -20540.123385   -100.907517
PE36 -13587.053983   9550.484971 -24496.290058   -201.552078
PG01  23184.853915  10883.579566   7324.716260    174.873082
PG02  22431.967010  14315.550025  -1770.714965   -467.559028
PG03  12215.994853  12547.163855  19863.804690    261.952001
PG04  19191.396325   5112.914929  17716.860972    318.875163
PG05  -6696.024652 -23292.226340 -10929.120768   -166.004396
PG06   6732.527024 -13073.196838  22177.131567    360.630670
PG07  21745.267648   2114.637696 -14923.532622    -88.105699
PG08  11846.410167  10891.041396 -21292.394741     66.682943
PG09  24659.030685  -6589.206782   7370.551792    130.381835
PG10 -10629.730367  19973.924590 -13436.640802     -1.290833
PG11  -5475.161024 -19336.636877  17413.913566   -611.727649
PG12 -11291.052452 -14230.943192  19110.909807   -488.727050
PG13  -1749.338065 -15151.925619 -21929.958355    635.576026
PG14  13308.644652 -16461.014789 -15896.662150    354.788293
PG15 -13016.032049 -10207.427065 -21301.014723    139.413098
PG16    646.927964  25442.171215  -7055.021520   -337.235995
PG17  22358.863730 -13368.599896   6004.003236    713.059754
PG18 -20825.847278  -1172.037452 -16537.130962   -578.750247
PG19  16164.168521 -15599.099296  13688.646206    456.303502
PG20  -1123.075433 -26558.293970   1915.268467    383.323243
PG21  20059.620707  16724.752009  -6692.615495    130.700015
PG22  10276.609387 -22814.792833  -8903.408773     13.404632
PG23 -14404.362989   8143.904072 -20707.165560    180.935479
PG24 -21070.347325 -15922.629547  -4864.804506   -448.571835
PG25 -15094.493858  -2788.630117  21345.291526    491.732301
PG26  -4328.792881  25344.976975   5686.725703    177.509012
PG27  -1135.968241  16640.552072 -20855.185153    -12.980283
PG28  -9240.548960  12089.705497  21751.095772   -170.637218
PG29 -24826.403307   2855.117084   9096.651240   -604.373682
PG30  14762.043278  -8091.075179 -20461.742595   -417.419683
PG31    365.911918  17472.086224  19672.234690   -227.996231
PG32 -19607.312307  15860.644053   8200.044056   -616.314264
PJ02 -30547.734367  25721.267050  18573.897623     -3.089082
PJ03 -27790.702425  15999.259280 -22758.962314     -0.172815
PJ04 -23970.329159  34293.719348   -477.067588     50.650972
PR01    615.697529 -15393.643016 -20318.104559     80.152599
PR02 -12444.775414  -1850.400811 -22126.904742    -22.599613
PR03 -18971.093722  12781.872186 -11174.232769     96.678081
PR04 -15089.384835  19793.806369   5593.898646    228.307725
PR05  -3078.758397  16301.660583  19385.899612    128.663454
PR07  19093.633829 -13340.387513  10501.643285     78.333441
PR08  14870.135749 -19940.190285  -5658.017158    -74.778722
PR09  13449.002198  14788.402874 -15881.218184    176.274806
PR11   3148.670015 -17853.623913 -17929.268922     30.713135
PR12  -7471.569927 -24391.297185   -541.228916     38.006057
PR13 -12750.964087 -16983.192795  14114.412381    -45.449512
PR14 -10837.352153   2710.284817  22938.206210     26.246035
PR15  -2522.641614  18964.789949  16888.486307     81.228086
PR16   7456.710001  24398.189412    864.406213     24.146687
PR17 -22669.895617    211.733480 -11717.892618     70.475065
PR18  -9906.809873   7850.445023 -22131.410922    133.000799
PR19   5777.560879  11732.055440 -21902.576476   -269.957845
PR20  22780.485552   9431.791568  -6628.080354   -110.020411
PR21  22574.791744    -62.083699  11855.990887    -85.860564
PR22   9180.464741  -8401.308160  22294.705539    113.614020
PR24 -23323.327292  -8396.720016   6049.188537    -48.423049
PR25  22587.410292    440.720037  11834.258184    -23.759511
PR26  15241.235969 -19891.056687  -4671.398674    -29.408075
EOF
